{
  "type": "FeatureCollection",
  "features": [
    {
      "type": "Feature",
      "properties": {
        "norad_id": 38091,
        "name": "BEIDOU-2 G5 (C05)",
        "group": "gnss",
        "lat": 2.04249425051645,
        "lon": -150.0538608021846,
        "alt_km": 35788.844476152946,
        "timestamp": "2025-12-24T03:53:29.890224+00:00",
        "meta_object_name": "BEIDOU-2 G5 (C05)",
        "meta_object_id": "2012-008A",
        "meta_epoch": "2025-12-23T20:15:33.482592",
        "meta_mean_motion": 1.00269682,
        "meta_eccentricity": 0.0013063,
        "meta_inclination": 3.1351,
        "meta_ra_of_asc_node": 70.6688,
        "meta_arg_of_pericenter": 232.0754,
        "meta_mean_anomaly": 152.516,
        "meta_ephemeris_type": 0,
        "meta_classification_type": "U",
        "meta_norad_cat_id": 38091,
        "meta_element_set_no": 999,
        "meta_rev_at_epoch": 5061,
        "meta_bstar": 0,
        "meta_mean_motion_dot": 7.7e-07,
        "meta_mean_motion_ddot": 0,
        "tle_line1": "1 38091U 12008A   25357.84413753  .00000077  00000+0  00000+0 0  9991",
        "tle_line2": "2 38091   3.1351  70.6688 0013063 232.0754 152.5160  1.00269682 50613"
      },
      "geometry": {
        "type": "Point",
        "coordinates": [
          -150.0538608021846,
          2.04249425051645
        ]
      }
    },
    {
      "type": "Feature",
      "properties": {
        "norad_id": 38250,
        "name": "BEIDOU-2 M3 (C11)",
        "group": "gnss",
        "lat": 12.08024106365744,
        "lon": -40.92005110052032,
        "alt_km": 21537.387399921306,
        "timestamp": "2025-12-24T03:53:29.890235+00:00",
        "meta_object_name": "BEIDOU-2 M3 (C11)",
        "meta_object_id": "2012-018A",
        "meta_epoch": "2025-12-23T14:28:50.284992",
        "meta_mean_motion": 1.86230163,
        "meta_eccentricity": 0.0024102,
        "meta_inclination": 55.911,
        "meta_ra_of_asc_node": 310.7927,
        "meta_arg_of_pericenter": 275.3746,
        "meta_mean_anomaly": 84.3517,
        "meta_ephemeris_type": 0,
        "meta_classification_type": "U",
        "meta_norad_cat_id": 38250,
        "meta_element_set_no": 999,
        "meta_rev_at_epoch": 9267,
        "meta_bstar": 0,
        "meta_mean_motion_dot": -5.4e-07,
        "meta_mean_motion_ddot": 0,
        "tle_line1": "1 38250U 12018A   25357.60335978 -.00000054  00000+0  00000+0 0  9991",
        "tle_line2": "2 38250  55.9110 310.7927 0024102 275.3746  84.3517  1.86230163 92675"
      },
      "geometry": {
        "type": "Point",
        "coordinates": [
          -40.92005110052032,
          12.08024106365744
        ]
      }
    },
    {
      "type": "Feature",
      "properties": {
        "norad_id": 38251,
        "name": "BEIDOU-2 M4 (C12)",
        "group": "gnss",
        "lat": 45.841750562554886,
        "lon": -5.64732442381431,
        "alt_km": 21555.680191931096,
        "timestamp": "2025-12-24T03:53:29.890247+00:00",
        "meta_object_name": "BEIDOU-2 M4 (C12)",
        "meta_object_id": "2012-018B",
        "meta_epoch": "2025-12-21T22:11:20.549760",
        "meta_mean_motion": 1.86229896,
        "meta_eccentricity": 0.00152556,
        "meta_inclination": 55.8135,
        "meta_ra_of_asc_node": 310.0771,
        "meta_arg_of_pericenter": 279.1681,
        "meta_mean_anomaly": 80.6551,
        "meta_ephemeris_type": 0,
        "meta_classification_type": "U",
        "meta_norad_cat_id": 38251,
        "meta_element_set_no": 999,
        "meta_rev_at_epoch": 9264,
        "meta_bstar": 0,
        "meta_mean_motion_dot": -6e-07,
        "meta_mean_motion_ddot": 0,
        "tle_line1": "1 38251U 12018B   25355.92454340 -.00000060  00000+0  00000+0 0  9997",
        "tle_line2": "2 38251  55.8135 310.0771 0015255 279.1681  80.6551  1.86229896 92646"
      },
      "geometry": {
        "type": "Point",
        "coordinates": [
          -5.64732442381431,
          45.841750562554886
        ]
      }
    },
    {
      "type": "Feature",
      "properties": {
        "norad_id": 38652,
        "name": "SES-5 (EGNOS/PRN 136)",
        "group": "gnss",
        "lat": -0.02059297118637787,
        "lon": 156.27830560826294,
        "alt_km": 35789.18457429217,
        "timestamp": "2025-12-24T03:53:29.890259+00:00",
        "meta_object_name": "SES-5 (EGNOS/PRN 136)",
        "meta_object_id": "2012-036A",
        "meta_epoch": "2025-12-23T18:17:29.639904",
        "meta_mean_motion": 1.00271888,
        "meta_eccentricity": 0.0001862,
        "meta_inclination": 0.0604,
        "meta_ra_of_asc_node": 303.5892,
        "meta_arg_of_pericenter": 326.2046,
        "meta_mean_anomaly": 102.1152,
        "meta_ephemeris_type": 0,
        "meta_classification_type": "U",
        "meta_norad_cat_id": 38652,
        "meta_element_set_no": 999,
        "meta_rev_at_epoch": 4269,
        "meta_bstar": 0,
        "meta_mean_motion_dot": 5.5e-07,
        "meta_mean_motion_ddot": 0,
        "tle_line1": "1 38652U 12036A   25357.76214861  .00000055  00000+0  00000+0 0  9991",
        "tle_line2": "2 38652   0.0604 303.5892 0001862 326.2046 102.1152  1.00271888 42694"
      },
      "geometry": {
        "type": "Point",
        "coordinates": [
          156.27830560826294,
          -0.02059297118637787
        ]
      }
    },
    {
      "type": "Feature",
      "properties": {
        "norad_id": 38775,
        "name": "BEIDOU-2 M6 (C14)",
        "group": "gnss",
        "lat": -53.15922363798326,
        "lon": -48.83999280122416,
        "alt_km": 21533.490631175555,
        "timestamp": "2025-12-24T03:53:29.890271+00:00",
        "meta_object_name": "BEIDOU-2 M6 (C14)",
        "meta_object_id": "2012-050B",
        "meta_epoch": "2025-12-23T05:54:39.234816",
        "meta_mean_motion": 1.86230862,
        "meta_eccentricity": 0.00114449,
        "meta_inclination": 56.3871,
        "meta_ra_of_asc_node": 68.7189,
        "meta_arg_of_pericenter": 343.1863,
        "meta_mean_anomaly": 16.829,
        "meta_ephemeris_type": 0,
        "meta_classification_type": "U",
        "meta_norad_cat_id": 38775,
        "meta_element_set_no": 999,
        "meta_rev_at_epoch": 9003,
        "meta_bstar": 0,
        "meta_mean_motion_dot": -2.5e-07,
        "meta_mean_motion_ddot": 0,
        "tle_line1": "1 38775U 12050B   25357.24628744 -.00000025  00000+0  00000+0 0  9993",
        "tle_line2": "2 38775  56.3871  68.7189 0011444 343.1863  16.8290  1.86230862 90037"
      },
      "geometry": {
        "type": "Point",
        "coordinates": [
          -48.83999280122416,
          -53.15922363798326
        ]
      }
    },
    {
      "type": "Feature",
      "properties": {
        "norad_id": 38779,
        "name": "GSAT-10 (GAGAN/PRN 128)",
        "group": "gnss",
        "lat": -0.045210330995248724,
        "lon": -125.63389129923402,
        "alt_km": 35789.82312406018,
        "timestamp": "2025-12-24T03:53:29.890283+00:00",
        "meta_object_name": "GSAT-10 (GAGAN/PRN 128)",
        "meta_object_id": "2012-051B",
        "meta_epoch": "2025-12-23T19:16:08.194368",
        "meta_mean_motion": 1.00271429,
        "meta_eccentricity": 0.0002265,
        "meta_inclination": 0.0654,
        "meta_ra_of_asc_node": 262.7671,
        "meta_arg_of_pericenter": 219.604,
        "meta_mean_anomaly": 342.2834,
        "meta_ephemeris_type": 0,
        "meta_classification_type": "U",
        "meta_norad_cat_id": 38779,
        "meta_element_set_no": 999,
        "meta_rev_at_epoch": 4834,
        "meta_bstar": 0,
        "meta_mean_motion_dot": -1.44e-06,
        "meta_mean_motion_ddot": 0,
        "tle_line1": "1 38779U 12051B   25357.80287262 -.00000144  00000+0  00000+0 0  9998",
        "tle_line2": "2 38779   0.0654 262.7671 0002265 219.6040 342.2834  1.00271429 48340"
      },
      "geometry": {
        "type": "Point",
        "coordinates": [
          -125.63389129923402,
          -0.045210330995248724
        ]
      }
    },
    {
      "type": "Feature",
      "properties": {
        "norad_id": 38833,
        "name": "GPS BIIF-3  (PRN 24)",
        "group": "gnss",
        "lat": -48.6345407808373,
        "lon": 27.790004393847532,
        "alt_km": 20653.011099878706,
        "timestamp": "2025-12-24T03:53:29.890295+00:00",
        "meta_object_name": "GPS BIIF-3  (PRN 24)",
        "meta_object_id": "2012-053A",
        "meta_epoch": "2025-12-22T07:46:34.286880",
        "meta_mean_motion": 2.0056507,
        "meta_eccentricity": 0.0176029,
        "meta_inclination": 53.5595,
        "meta_ra_of_asc_node": 150.8462,
        "meta_arg_of_pericenter": 64.1364,
        "meta_mean_anomaly": 297.6424,
        "meta_ephemeris_type": 0,
        "meta_classification_type": "U",
        "meta_norad_cat_id": 38833,
        "meta_element_set_no": 999,
        "meta_rev_at_epoch": 9589,
        "meta_bstar": 0,
        "meta_mean_motion_dot": 6.6e-07,
        "meta_mean_motion_ddot": 0,
        "tle_line1": "1 38833U 12053A   25356.32400795  .00000066  00000+0  00000+0 0  9997",
        "tle_line2": "2 38833  53.5595 150.8462 0176029  64.1364 297.6424  2.00565070 95894"
      },
      "geometry": {
        "type": "Point",
        "coordinates": [
          27.790004393847532,
          -48.6345407808373
        ]
      }
    }
  ]
}